STARLINK-2004_new
1 17599C 21009BD  21326.12967961  .00009782  00000-0  65529-3 0  3261
2 17599  53.0536 203.1585 0001909  71.0283 337.4039 15.06395376    17
STARLINK-2004_old
1 27599C 21009BD  21325.16353211  .00008731  00000-0  58502-3 0  3256
2 27599  53.0540 207.4956 0001828  70.5650 135.5175 15.06388650    18
